0321P         2023 10 26.4581  0.045771  0.981114  172.7471  165.0179   20.0904  20211229  20.0  4.0  321P/SOHO                                                MPC105243
0322P         2023 08 21.0973  0.050453  0.979882   56.8731  351.5274   11.4678  20211229  19.0  4.0  322P/SOHO                                                MPC102103
0323P         2021 01 17.7819  0.039181  0.984831  353.0534  324.3807    5.3364  20211229  20.0  4.0  323P/SOHO                                                MPEC 2016-Y36
0324P         2021 05  5.4208  2.618416  0.154031   57.5764  270.5900   21.4029  20211229  13.0  4.0  324P/LaSagra                                             MPEC 2021-W31
0325P         2022 03 29.1733  1.432414  0.593420  343.6990  257.5607   16.6938  20211229  14.0  4.0  325P/Yang-Gao                                            MPC114609
0326P         2023 12 30.6034  2.770943  0.317974  278.6204   99.8094    2.4710  20211229  13.5  4.0  326P/Hill                                                MPC103849
0327P         2022 09  2.4479  1.556028  0.563138  185.0502  173.9852   36.2512  20211229  16.0  4.0  327P/Van Ness                                            MPC 97499
0328P         2024 07 27.9602  1.876799  0.552435   30.5108  341.6355   17.6732  20211229  14.5  4.0  328P/LONEOS-Tucker                                       MPC109148
0329P         2027 09 27.0802  1.673789  0.677516  343.5288   87.6670   21.6826  20211229  13.5  4.0  329P/LINEAR-Catalina                                     MPC101101
0330P         2016 08 25.6903  2.992628  0.548376  188.9165  293.0912   15.6979  20211229  12.0  4.0  330P/Catalina                                            MPC105243
0331P         2020 10  1.7141  2.881467  0.041104  184.1789  216.7639    9.7379  20211229  12.0  4.0  331P/Gibbs                                               MPEC 2021-BE3
0332P         2021 08 18.4016  1.577093  0.489439  152.3319    3.7857    9.3800  20211229  18.0  4.0  332P/Ikeya-Murakami                                      MPEC 2016-K18
0332P      b  2016 03 17.1650  1.572891  0.489707  152.3711    3.8028    9.3805            19.0  4.0  332P-B/Ikeya-Murakami                                    MPEC 2016-EI8
0332P      c  2021 08 18.3237  1.577059  0.489444  152.3232    3.7861    9.3791  20211229  16.5  4.0  332P-C/Ikeya-Murakami                                    MPEC 2016-K18
0332P      d  2016 03 17.2819  1.572064  0.489778  152.4393    3.7923    9.3761            19.0  4.0  332P-D/Ikeya-Murakami                                    MPEC 2016-ED0
0332P      e  2016 03 17.0610  1.573139  0.489220  152.2825    3.8228    9.3774            21.0  4.0  332P-E/Ikeya-Murakami                                    MPEC 2016-ED0
0332P      f  2016 03 17.8554  1.584174  0.499189  152.8203    3.4757    9.5293            21.0  4.0  332P-F/Ikeya-Murakami                                    MPEC 2016-ED0
0332P      g  2016 03 19.5375  1.549652  0.492004  154.4000    3.6955    9.2523            19.0  4.0  332P-G/Ikeya-Murakami                                    MPEC 2016-ED0
0332P      h  2021 08 18.6819  1.577045  0.489480  152.3239    3.7859    9.3796  20211229  19.0  4.0  332P-H/Ikeya-Murakami                                    MPC100285
0332P      i  2016 03 17.3515  1.573073  0.489555  152.3297    3.8048    9.3791            20.5  2.0  332P-I/Ikeya-Murakami                                    MPEC 2016-ED0
0332P      j  2016 03 17.7739  1.575357  0.494294  152.7712    3.6729    9.4296            20.5  2.0  332P-J/Ikeya-Murakami                                    MPEC 2016-EI8
0333P         2024 11 29.1548  1.111151  0.736691   25.9928  115.6330  131.9873  20211229  15.0  4.0  333P/LINEAR                                              MPEC 2020-L06
0334P         2017 06  5.5620  4.438441  0.350962   90.1084   90.6439   20.4163  20211229  10.5  4.0  334P/NEAT                                                MPC115888
0335P         2022 08 12.0129  1.623966  0.546035  162.3037  330.8475    7.2934  20211229  17.0  4.0  335P/Gibbs                                               MPEC 2021-U31
0336P         2017 02  1.4980  2.795882  0.444599  308.7538  298.2433   17.8318  20211229  13.5  4.0  336P/McNaught                                            MPC105244
0337P         2022 07  1.1410  1.654107  0.496663  161.0205  106.0635   15.3709  20211229  17.0  4.0  337P/WISE                                                MPEC 2021-N06
0338P         2024 08  2.8495  2.291584  0.411796    4.4277    9.7956   25.3844  20211229  12.0  4.0  338P/McNaught                                            MPC104796
0339P         2023 08 31.0733  1.348001  0.635456   27.4962  172.7252    5.7333  20211229  17.0  4.0  339P/Gibbs                                               MPC101101
0340P         2025 08 27.7974  3.056920  0.280862   35.9012  291.7035    2.0787  20211229  14.3  4.0  340P/Boattini                                            MPEC 2021-UA9
0341P         2025 04 21.8791  2.508155  0.415670  312.2012   29.9713    3.7965  20211229  12.5  4.0  341P/Gibbs                                               MPEC 2021-BE3
0342P         2021 10 19.3008  0.052433  0.982766   73.2672   27.7046   11.6662  20211229   9.0  4.0  342P/SOHO                                                MPC101101
0343P         2017 01 29.2815  2.267490  0.584646  137.4051  257.1701    5.5865  20211229  14.0  4.0  343P/NEAT-LONEOS                                         MPC109148
0344P         2016 11  1.6403  2.809103  0.422449  140.3884  273.1526    3.4921  20211229  13.0  4.0  344P/Read                                                MPC109148
0345P         2024 08 29.7043  3.143744  0.221309  196.4704  154.5113    2.7274  20211229  12.0  4.0  345P/LINEAR                                              MPC109148
0346P         2026 08  2.8146  2.225442  0.502669  335.9586  102.4602   22.1914  20211229  14.0  4.0  346P/Catalina                                            MPC110086
0347P         2023 07 20.0347  2.213610  0.385977   98.3826  261.0225   11.7519  20211229  15.0  4.0  347P/PANSTARRS                                           MPC108599
0348P         2022 02 12.5107  2.183871  0.306774  135.6589  312.9412   17.7402  20211229  14.0  4.0  348P/PANSTARRS                                           MPEC 2021-Y10
0349P         2024 05 27.6360  2.506826  0.298660  256.0023  331.7454    5.4909  20211229  14.0  4.0  349P/Lemmon                                              MPC112394
0350P         2017 12 13.1472  3.711553  0.092193  139.8589   65.3109    7.3598  20211229  14.0  4.0  350P/McNaught                                            MPC111775
0351P         2025 03 26.1454  3.126409  0.295564  352.6820  283.4429   12.7844  20211229  12.5  4.0  351P/Wiegert-PANSTARRS                                   MPC105244
0352P         2017 06 22.8335  2.535477  0.618187  309.2575   28.0341   21.0105  20211229  11.5  4.0  352P/Skiff                                               MPC110086
0353P         2017 12 22.5086  2.209347  0.470308  230.4118  121.5536   28.4200  20211229  14.5  4.0  353P/McNaught                                            MPEC 2020-AA5
0354P         2020 04 27.0296  2.001553  0.125705  132.8935  320.1281    5.2556  20211229  15.5  4.0  354P/LINEAR                                              MPC105545
0355P         2024 04  1.6419  1.709375  0.507520  336.2696   51.4296   11.0430  20211229  15.5  2.0  355P/LINEAR-NEAT                                         MPEC 2020-AA5
0356P         2017 12 18.1695  2.680618  0.355402  225.9939  160.7978    9.6380  20211229  14.0  4.0  356P/WISE                                                MPEC 2021-F20
0357P         2018 05 29.5033  2.518753  0.435189    1.3878   44.5621    6.3135  20211229  15.5  4.0  357P/Hill                                                MPC114609
0358P         2023 11 11.2689  2.395725  0.238713  299.7544   85.7030   11.0593  20211229  18.0  4.0  358P/PANSTARRS                                           MPEC 2020-HN5
0359P         2017 08 22.3358  3.135566  0.324202  200.1979  149.7558   10.2675  20211229  13.5  4.0  359P/LONEOS                                              MPC110086
0360P         2024 10  3.4712  1.853938  0.499133  354.1502    2.1909   24.1100  20211229  19.5  6.0  360P/WISE                                                MPC108599
0361P         2018 07  2.5534  2.772739  0.438408  219.0219  203.2515   13.8973  20211229  12.0  4.0  361P/Spacewatch                                          MPC114609
0362P         2024 07 20.6348  2.861979  0.279106   53.6835  192.5551   15.5562  20211229  12.9  2.0  362P                                                     MPEC 2017-V13
0363P         2024 11 12.2349  1.699384  0.522447  341.1797  146.8837    5.4115  20211229  17.5  4.0  363P/Lemmon                                              MPC114609
0364P         2023 05 13.9583  0.800562  0.721989  212.0167   46.1734   12.1366  20211229  17.0  2.0  364P/PANSTARRS                                           MPEC 2021-F20
0365P         2023 10  9.7807  1.333246  0.579493   66.7736   86.9015    9.8199  20211229  17.0  4.0  365P/PANSTARRS                                           MPC111775
0366P         2025 01 31.7924  2.279205  0.348086  153.1080   70.7620    8.8580  20211229  15.0  4.0  366P/Spacewatch                                          MPC114610
0367P         2025 01 12.4152  2.524704  0.279980  172.8780   58.7220    8.4611  20211229  17.5  2.0  367P/Catalina                                            MPC112395
0368P         2018 09 14.9932  2.064042  0.626608  118.8281  257.9114   15.4808  20211229  14.0  4.0  368P/NEAT                                                MPC114610
0369P         2018 10 15.4721  1.951487  0.554779   13.1622   47.2911   10.3181  20211229  15.0  4.0  369P/Hill                                                MPC114610
